IRIDIUM 36              
1 24967U 97056C   24248.57999295  .00001462  00000+0  48697-3 0  9999
2 24967  86.3936 292.9609 0002130  96.5103 263.6337 14.37004223411194
IRIDIUM 39              
1 25042U 97069D   24248.61156445  .00003534  00000+0  93938-3 0  9995
2 25042  86.3966 333.5658 0018526 173.3956 186.7495 14.48280396407615
IRIDIUM 38              
1 25043U 97069E   24248.35362933  .00002044  00000+0  67701-3 0  9992
2 25043  86.4021 353.4034 0001475  33.4923 326.6367 14.37480779404887
IRIDIUM 42              
1 25077U 97077A   24248.36130425  .00001974  00000+0  67645-3 0  9996
2 25077  86.4025 359.2121 0001870  74.5047 285.6356 14.35760998400173
IRIDIUM 44              
1 25078U 97077B   24248.31893703  .00001822  00000+0  57737-3 0  9990
2 25078  86.4012 341.9329 0000938 152.0257 208.0992 14.39607652402591
IRIDIUM 45              
1 25104U 97082A   24248.34857385  .00038747  00000+0  19961-2 0  9997
2 25104  86.3737 185.0096 0147324 311.9181  46.9567 15.07198128408766
IRIDIUM 24              
1 25105U 97082B   24248.37841874  .00002268  00000+0  69390-3 0  9998
2 25105  86.3955 201.3560 0009617 310.8939  49.1427 14.41412280402037
IRIDIUM 51              
1 25262U 98018A   24248.39413477  .00036204  00000+0  15116-2 0  9991
2 25262  86.3991 194.5394 0130225 249.0377 109.6889 15.15985348403394
